0 COSMOS 643
1 07267U 74024C   13280.51282940  .00000002  00000-0  10548-3 0  6736
2 07267 074.0165 295.9149 0083365 318.1730 210.3870 12.61514796817272
0 COSMOS 643
1 07267U 74024C   13282.78688799  .00000015  00000-0  18051-3 0  6741
2 07267 074.0164 292.8244 0083412 314.7161 097.8868 12.61514737817568
0 COSMOS 643
1 07267U 74024C   13287.47892814 -.00000029  00000-0 -69391-4 0  6760
2 07267 074.0162 286.4475 0083438 307.5656 166.5211 12.61515357818159
0 COSMOS 643
1 07267U 74024C   13289.76531181 -.00000024  00000-0 -39558-4 0  6779
2 07267 074.0166 283.3399 0083452 304.0905 109.9980 12.61515368818447
0 COSMOS 643
1 07267U 74024C   13292.06732078 -.00000002  00000-0  86068-4 0  6788
2 07267 074.0169 280.2113 0083460 300.5971 124.4312 12.61515288818737
0 COSMOS 643
1 07267U 74024C   13294.45794306  .00000021  00000-0  20939-3 0  6790
2 07267 074.0171 276.9624 0083473 296.9535 181.3114 12.61515170819033
